41P/Tuttle-Giacobini-Kresak,e,9.2162,140.9715,62.2278,3.088048,0.1816260,0.65953768,149.9548,12/17.0/2024,2000,g 10.0,16.0
# From MPC 94283
42P/Neujmin,e,3.9884,150.1549,147.1604,4.877793,0.0914890,0.58402123,323.9530,12/17.0/2024,2000,g 13.0,6.0
# From MPEC 2024-X74
43P/Wolf-Harrington,e,9.3342,243.9953,223.8950,4.329447,0.1094096,0.43589726,334.7260,12/17.0/2024,2000,g  8.0,6.0
# From MPEC 2024-F34
44P/Reinmuth,e,5.8960,286.4227,58.0127,3.687781,0.1391734,0.42685088,134.9383,12/17.0/2024,2000,g  8.3,6.0
# From MPEC 2022-O01
45P/Honda-Mrkos-Pajdusakova,e,4.3242,87.6853,327.9470,3.056689,0.1844282,0.81771297,177.9166,12/17.0/2024,2000,g 13.5,8.0
# From MPEC 2024-F91
46P/Wirtanen,e,11.7499,82.1608,356.3267,3.091396,0.1813310,0.65876304,38.4238,12/17.0/2024,2000,g 14.0,6.0
# From MPEC 2024-PC5
47P/Ashbrook-Jackson,e,13.0376,356.8886,357.8961,4.118632,0.1179165,0.31835434,322.8655,12/17.0/2024,2000,g  1.0,11.2
# From MPEC 2024-UA9
48P/Johnson,e,12.2016,110.0640,216.7775,3.499810,0.1505350,0.42666437,348.6123,12/17.0/2024,2000,g 10.0,6.0
# From MPEC 2024-X74
49P/Arend-Rigaux,e,19.0587,118.7939,332.9375,3.569596,0.1461422,0.59902321,343.2482,12/17.0/2024,2000,g 11.3,4.4
# From MPEC 2024-X74
50P/Arend,e,19.0988,355.1488,49.3307,4.088439,0.1192251,0.52987299,26.0264,12/17.0/2024,2000,g  9.5,6.0
# From MPEC 2023-J29
51P/Harrington,e,5.4263,83.6577,269.2440,3.705432,0.1381802,0.54292313,111.6592,12/17.0/2024,2000,g 10.0,8.0
# From NK 3014
51P-A/Harrington,e,5.4262,269.2299,83.6521,3.706686,0.1381101,0.54311465,111.2464,12/17.0/2024,2000,g 10.0,8.0
# From MPEC 2023-J29
51P-D/Harrington,e,5.4268,83.6460,269.2621,3.705786,0.1381604,0.54305308,111.5848,12/17.0/2024,2000,g 16.0,8.0
# From MPEC 2023-XP6
52P/Harrington-Abell,e,10.2356,336.7681,139.5911,3.862258,0.1298501,0.54098683,151.6764,12/17.0/2024,2000,g 13.5,6.0
# From MPEC 2023-TM6
53P/VanBiesbroeck,e,6.6027,148.8511,134.3702,5.438053,0.0777211,0.54953759,245.6935,12/17.0/2024,2000,g  7.7,4.8
# From MPEC 2024-X74
54P/deVico-Swift-NEAT,e,6.0638,358.7958,1.9963,3.786798,0.1337506,0.42645123,13.9139,12/17.0/2024,2000,g 10.0,6.0
# From MPC 31070
55P/Tempel-Tuttle,e,162.4941,235.4167,172.4781,10.34183,0.0296352,0.90563964,290.4338,12/17.0/2024,2000,g  9.0,4.0
# From MPEC 2023-TM6
56P/Slaughter-Burnham,e,8.1551,345.9076,44.1980,5.063459,0.0865034,0.50851577,265.0873,12/17.0/2024,2000,g  8.5,6.0
# From MPEC 2024-DC6
57P/duToit-Neujmin-Delporte,e,2.8526,188.7609,115.0630,3.441591,0.1543708,0.50094139,178.6838,12/17.0/2024,2000,g 12.5,6.0
# From MPEC 2024-A43
58P/Jackson-Neujmin,e,13.0921,159.0506,200.5799,4.090486,0.1191356,0.66192443,198.3269,12/17.0/2024,2000,g 15.5,6.0
# From MPEC 2023-A50
59P/Kearns-Kwee,e,9.3540,312.7339,127.6406,4.479860,0.1039459,0.47701085,236.8970,12/17.0/2024,2000,g  7.0,6.0
# From MPEC 2021-F20
60P/Tsuchinshan,e,3.5813,267.4264,216.9168,3.529517,0.1486384,0.53382294,327.9447,12/17.0/2024,2000,g 11.5,6.0
# From MPEC 2024-JU4
61P/Shajn-Schaldach,e,5.9979,162.9637,221.6938,3.689973,0.1390495,0.42330530,109.2066,12/17.0/2024,2000,g  6.0,10.0
# From MPEC 2024-O39
62P/Tsuchinshan,e,4.7374,68.6663,47.3173,3.370390,0.1592883,0.62467565,57.0005,12/17.0/2024,2000,g  8.0,10.0
# From MPC 84320
63P/Wild,e,19.6309,357.8162,168.8217,5.643662,0.0735127,0.65061167,318.3606,12/17.0/2024,2000,g 10.5,6.0
# From MPEC 2024-A43
64P/Swift-Gehrels,e,8.9528,299.7871,97.3201,4.452108,0.1049193,0.68861224,234.1262,12/17.0/2024,2000,g  9.5,12.0
# From MPEC 2024-R10
65P/Gunn,e,9.1759,61.9767,213.7046,3.891674,0.1283806,0.24810476,336.6843,12/17.0/2024,2000,g  5.0,6.0
# From MPEC 2021-F20
66P/duToit,e,18.6434,21.8186,257.4222,6.070697,0.0658941,0.78500815,158.7329,12/17.0/2024,2000,g 15.0,4.0
# From MPEC 2024-C04
67P/Churyumov-Gerasimenko,e,3.8696,36.3228,22.1947,3.458376,0.1532483,0.64996559,174.7585,12/17.0/2024,2000,g 11.0,4.0
# From MPEC 2023-HD1
68P/Klemola,e,11.1027,175.0821,153.2454,4.962950,0.0891444,0.63599836,166.4249,12/17.0/2024,2000,g 12.6,4.0
# From MPEC 2024-C04
69P/Taylor,e,22.0612,104.8080,343.4656,3.881327,0.1288943,0.41465902,270.3824,12/17.0/2024,2000,g  9.5,12.0
# From MPEC 2023-VM5
70P/Kojima,e,6.6022,119.2357,1.7800,3.675721,0.1398590,0.45465937,159.3324,12/17.0/2024,2000,g 11.0,6.0
# From MPEC 2024-X74
71P/Clark,e,9.3967,59.3815,209.8912,3.161821,0.1753066,0.49155177,121.5908,12/17.0/2024,2000,g  9.8,6.0
# From MPEC 2023-VM5
72P/Denning-Fujikawa,e,10.9467,26.7096,346.7447,4.307550,0.1102449,0.81847700,60.6686,12/17.0/2024,2000,g 17.5,10.0
# From MPEC 2023-RF3
73P/Schwassmann-Wachmann,e,11.1494,69.3457,198.9659,3.057188,0.1843830,0.70360133,153.8420,12/17.0/2024,2000,g 11.5,6.0
# From NK 1613
73P-B/Schwassmann-Wachmann B,e,10.9408,197.0620,71.4614,3.075984,0.1826955,0.69487267,152.6908,12/17.0/2024,2000,g  9.0,4.0
# From NK 2710
73P-C/Schwassmann-Wachmann,e,10.9484,197.1929,71.3655,3.074836,0.1827979,0.69451178,153.5330,12/17.0/2024,2000,g  9.0,4.0
# From NK 934
73P-E/Schwassmann-Wachmann,e,10.9188,196.8285,71.6636,3.079415,0.1823903,0.69557844,150.8044,12/17.0/2024,2000,g  9.0,4.0
# From MPC 56796
73P-G/Schwassmann-Wachmann,e,11.388,69.909,198.772,3.06230,0.183922,0.6933024,359.982,06/08.0/2006,2000,g  9.0,4.0
# From MPC 56796
73P-H/Schwassmann-Wachmann,e,11.389,69.903,198.778,3.06223,0.183927,0.6933024,359.948,06/08.0/2006,2000,g  9.0,4.0
# From MPC 56796
73P-J/Schwassmann-Wachmann,e,11.386,69.983,198.673,3.06380,0.183786,0.6933024,359.974,06/08.0/2006,2000,g  9.0,4.0
# From MPC 56797
73P-K/Schwassmann-Wachmann,e,11.390,69.881,198.809,3.06176,0.183970,0.6933024,359.959,06/08.0/2006,2000,g  9.0,4.0
# From MPC 56797
73P-L/Schwassmann-Wachmann,e,11.388,69.911,198.772,3.06211,0.183938,0.6933024,359.937,06/08.0/2006,2000,g  9.0,4.0
# From MPC 56797
73P-M/Schwassmann-Wachmann,e,11.389,69.895,198.787,3.06205,0.183944,0.6933024,359.952,06/08.0/2006,2000,g  9.0,4.0
# From MPC 56797
73P-N/Schwassmann-Wachmann,e,11.389,69.909,198.754,3.06231,0.183921,0.6933024,359.952,06/08.0/2006,2000,g  9.0,4.0
# From MPC 56797
73P-P/Schwassmann-Wachmann,e,11.390,69.900,198.783,3.06222,0.183929,0.6933024,359.839,06/07.0/2006,2000,g  9.0,4.0
# From MPC 56797
73P-Q/Schwassmann-Wachmann,e,11.387,69.944,198.717,3.06298,0.183860,0.6933024,359.867,06/07.0/2006,2000,g  9.0,4.0
# From MPC 56797
73P-R/Schwassmann-Wachmann,e,11.388,69.904,198.776,3.06224,0.183927,0.6933024,359.966,06/08.0/2006,2000,g  9.0,4.0
# From MPC 56797
73P-S/Schwassmann-Wachmann,e,11.127,77.364,188.229,3.22719,0.170007,0.6933024,359.883,06/08.0/2006,2000,g  9.0,4.0
# From MPEC 2023-J29
73P-T/Schwassmann-Wachmann,e,11.1578,69.3560,198.9511,3.056356,0.1844583,0.70328869,154.1486,12/17.0/2024,2000,g  9.0,4.0
# From MPC 56797
73P-U/Schwassmann-Wachmann,e,11.384,69.994,198.659,3.06366,0.183799,0.6933024,359.997,06/09.0/2006,2000,g  9.0,4.0
# From MPC 56797
73P-V/Schwassmann-Wachmann,e,11.651,65.236,204.943,2.97417,0.192156,0.6933024,359.908,06/08.0/2006,2000,g  9.0,4.0
# From MPC 56797
73P-W/Schwassmann-Wachmann,e,11.390,69.884,198.803,3.06185,0.183962,0.6933024,359.908,06/08.0/2006,2000,g  9.0,4.0
# From MPC 56798
73P-X/Schwassmann-Wachmann,e,11.388,69.900,198.778,3.06207,0.183942,0.6933024,359.896,06/08.0/2006,2000,g  9.0,4.0
# From MPC 56798
73P-Y/Schwassmann-Wachmann,e,11.391,69.879,198.785,3.06200,0.183948,0.6933024,359.858,06/08.0/2006,2000,g  9.0,4.0
# From MPC 56798
73P-Z/Schwassmann-Wachmann,e,11.349,70.493,198.017,3.07155,0.183091,0.6933024,359.943,06/08.0/2006,2000,g  9.0,4.0
# From MPC 56798
73P-AA/Schwassmann-Wachmann,e,11.390,69.883,198.804,3.06182,0.183965,0.6933024,359.984,06/09.0/2006,2000,g  9.0,4.0
# From MPC 56798
73P-AB/Schwassmann-Wachmann,e,11.390,69.888,198.792,3.06183,0.183964,0.6933024,359.872,06/08.0/2006,2000,g  9.0,4.0
# From MPC 56798
73P-AC/Schwassmann-Wachmann,e,11.387,69.914,198.766,3.06223,0.183927,0.6933024,359.872,06/08.0/2006,2000,g  9.0,4.0
# From MPC 56798
73P-AD/Schwassmann-Wachmann,e,11.355,70.416,198.119,3.07035,0.183198,0.6933024,359.873,06/08.0/2006,2000,g  9.0,4.0
# From MPC 56798
73P-AE/Schwassmann-Wachmann,e,11.390,69.891,198.790,3.06196,0.183952,0.6933024,359.935,06/08.0/2006,2000,g  9.0,4.0
# From MPC 56798
73P-AF/Schwassmann-Wachmann,e,11.356,70.302,198.217,3.06961,0.183265,0.6933024,359.846,06/06.0/2006,2000,g  9.0,4.0
# From MPC 56798
73P-AG/Schwassmann-Wachmann,e,11.386,69.932,198.724,3.06233,0.183919,0.6933024,359.997,06/09.0/2006,2000,g  9.0,4.0
# From MPC 56798
73P-AH/Schwassmann-Wachmann,e,11.331,70.695,197.755,3.07445,0.182832,0.6933024,359.885,06/08.0/2006,2000,g  9.0,4.0
# From MPC 56798
73P-AI/Schwassmann-Wachmann,e,11.392,69.885,198.806,3.06205,0.183944,0.6933024,359.864,06/08.0/2006,2000,g  9.0,4.0
# From MPC 56799
73P-AJ/Schwassmann-Wachmann,e,11.385,70.041,198.663,3.06262,0.183892,0.6933024,359.864,06/08.0/2006,2000,g  9.0,4.0
# From MPC 56799
73P-AK/Schwassmann-Wachmann,e,11.389,69.784,198.822,3.06244,0.183909,0.6933024,359.927,06/08.0/2006,2000,g  9.0,4.0
# From MPC 56799
73P-AL/Schwassmann-Wachmann,e,11.395,69.843,198.857,3.06140,0.184003,0.6933024,359.916,06/08.0/2006,2000,g  9.0,4.0
# From MPC 56799
73P-AM/Schwassmann-Wachmann,e,11.394,69.876,198.815,3.06205,0.183944,0.6933024,359.951,06/08.0/2006,2000,g  9.0,4.0
# From MPC 56799
73P-AN/Schwassmann-Wachmann,e,11.393,69.870,198.820,3.06185,0.183962,0.6933024,359.940,06/08.0/2006,2000,g  9.0,4.0
# From MPC 56799
73P-AO/Schwassmann-Wachmann,e,11.210,71.286,197.007,3.07823,0.182496,0.6933024,359.853,06/07.0/2006,2000,g  9.0,4.0
# From MPC 56799
73P-AP/Schwassmann-Wachmann,e,11.393,69.895,198.794,3.06223,0.183928,0.6933024,359.874,06/06.0/2006,2000,g  9.0,4.0
# From MPC 56799
73P-AQ/Schwassmann-Wachmann,e,11.387,69.911,198.770,3.06230,0.183921,0.6933024,359.831,06/07.0/2006,2000,g  9.0,4.0
# From MPC 56799
73P-AR/Schwassmann-Wachmann,e,11.385,69.946,198.722,3.06285,0.183872,0.6933024,359.847,06/06.0/2006,2000,g  9.0,4.0
# From MPC 56799
73P-AS/Schwassmann-Wachmann,e,11.392,69.906,198.773,3.06237,0.183915,0.6933024,359.938,06/06.0/2006,2000,g  9.0,4.0
# From MPC 56799
